{
  "type": "FeatureCollection",
  "features": [
    {
      "type": "Feature",
      "properties": {
        "norad_id": 31311,
        "name": "FENGYUN 1C DEB",
        "group": "fengyun-1c-debris",
        "lat": -1.5598497795917796,
        "lon": 61.96608796811169,
        "alt_km": 799.8269163514897,
        "timestamp": "2025-12-06T11:28:11.344130+00:00",
        "meta_object_name": "FENGYUN 1C DEB",
        "meta_object_id": "1999-025BPP",
        "meta_epoch": "2025-12-05T19:13:01.858080",
        "meta_mean_motion": 14.29652564,
        "meta_eccentricity": 0.00192662,
        "meta_inclination": 98.8536,
        "meta_ra_of_asc_node": 61.0348,
        "meta_arg_of_pericenter": 106.7889,
        "meta_mean_anomaly": 8.579,
        "meta_ephemeris_type": 0,
        "meta_classification_type": "U",
        "meta_norad_cat_id": 31311,
        "meta_element_set_no": 999,
        "meta_rev_at_epoch": 96122,
        "meta_bstar": 0.0032715122,
        "meta_mean_motion_dot": 8.363e-05,
        "meta_mean_motion_ddot": 0,
        "tle_line1": "1 31311U 99025BPP 25339.80071595  .00008363  00000+0  32715-2 0  9990",
        "tle_line2": "2 31311  98.8536  61.0348 0019266 106.7889   8.5790 14.29652564961228"
      },
      "geometry": {
        "type": "Point",
        "coordinates": [
          61.96608796811169,
          -1.5598497795917796
        ]
      }
    },
    {
      "type": "Feature",
      "properties": {
        "norad_id": 31312,
        "name": "FENGYUN 1C DEB",
        "group": "fengyun-1c-debris",
        "lat": 81.12589801684611,
        "lon": -126.57324967058831,
        "alt_km": 923.7812966377387,
        "timestamp": "2025-12-06T11:28:11.344139+00:00",
        "meta_object_name": "FENGYUN 1C DEB",
        "meta_object_id": "1999-025BPQ",
        "meta_epoch": "2025-12-01T11:40:09.596352",
        "meta_mean_motion": 14.00893121,
        "meta_eccentricity": 0.00581856,
        "meta_inclination": 98.8574,
        "meta_ra_of_asc_node": 321.4953,
        "meta_arg_of_pericenter": 267.9693,
        "meta_mean_anomaly": 222.3029,
        "meta_ephemeris_type": 0,
        "meta_classification_type": "U",
        "meta_norad_cat_id": 31312,
        "meta_element_set_no": 999,
        "meta_rev_at_epoch": 94988,
        "meta_bstar": 0.00061208287,
        "meta_mean_motion_dot": 8.85e-06,
        "meta_mean_motion_ddot": 0,
        "tle_line1": "1 31312U 99025BPQ 25335.48622218  .00000885  00000+0  61208-3 0  9996",
        "tle_line2": "2 31312  98.8574 321.4953 0058185 267.9693 222.3029 14.00893121949886"
      },
      "geometry": {
        "type": "Point",
        "coordinates": [
          -126.57324967058831,
          81.12589801684611
        ]
      }
    },
    {
      "type": "Feature",
      "properties": {
        "norad_id": 31313,
        "name": "FENGYUN 1C DEB",
        "group": "fengyun-1c-debris",
        "lat": 14.718213792301786,
        "lon": -118.16867125733394,
        "alt_km": 850.245603869048,
        "timestamp": "2025-12-06T11:28:11.344149+00:00",
        "meta_object_name": "FENGYUN 1C DEB",
        "meta_object_id": "1999-025BPR",
        "meta_epoch": "2025-12-05T05:00:28.756224",
        "meta_mean_motion": 14.22258211,
        "meta_eccentricity": 0.00441977,
        "meta_inclination": 99.0148,
        "meta_ra_of_asc_node": 242.9241,
        "meta_arg_of_pericenter": 202.9154,
        "meta_mean_anomaly": 157.0051,
        "meta_ephemeris_type": 0,
        "meta_classification_type": "U",
        "meta_norad_cat_id": 31313,
        "meta_element_set_no": 999,
        "meta_rev_at_epoch": 96955,
        "meta_bstar": 0.00053562898,
        "meta_mean_motion_dot": 1.155e-05,
        "meta_mean_motion_ddot": 0,
        "tle_line1": "1 31313U 99025BPR 25339.20866616  .00001155  00000+0  53563-3 0  9999",
        "tle_line2": "2 31313  99.0148 242.9241 0044197 202.9154 157.0051 14.22258211969557"
      },
      "geometry": {
        "type": "Point",
        "coordinates": [
          -118.16867125733394,
          14.718213792301786
        ]
      }
    },
    {
      "type": "Feature",
      "properties": {
        "norad_id": 31314,
        "name": "FENGYUN 1C DEB",
        "group": "fengyun-1c-debris",
        "lat": 79.38892487906317,
        "lon": -149.3490395279969,
        "alt_km": 859.965420321324,
        "timestamp": "2025-12-06T11:28:11.344159+00:00",
        "meta_object_name": "FENGYUN 1C DEB",
        "meta_object_id": "1999-025BPS",
        "meta_epoch": "2025-12-04T06:02:04.117920",
        "meta_mean_motion": 14.0491099,
        "meta_eccentricity": 0.0079252,
        "meta_inclination": 98.8219,
        "meta_ra_of_asc_node": 332.4967,
        "meta_arg_of_pericenter": 21.1636,
        "meta_mean_anomaly": 339.278,
        "meta_ephemeris_type": 0,
        "meta_classification_type": "U",
        "meta_norad_cat_id": 31314,
        "meta_element_set_no": 999,
        "meta_rev_at_epoch": 60695,
        "meta_bstar": 0.00048284,
        "meta_mean_motion_dot": 7.55e-06,
        "meta_mean_motion_ddot": 0,
        "tle_line1": "1 31314U 99025BPS 25338.25143655  .00000755  00000+0  48284-3 0  9994",
        "tle_line2": "2 31314  98.8219 332.4967 0079252  21.1636 339.2780 14.04910990606954"
      },
      "geometry": {
        "type": "Point",
        "coordinates": [
          -149.3490395279969,
          79.38892487906317
        ]
      }
    },
    {
      "type": "Feature",
      "properties": {
        "norad_id": 31319,
        "name": "FENGYUN 1C DEB",
        "group": "fengyun-1c-debris",
        "lat": -72.08952794997663,
        "lon": 30.993400923540197,
        "alt_km": 1095.0261592806046,
        "timestamp": "2025-12-06T11:28:11.344169+00:00",
        "meta_object_name": "FENGYUN 1C DEB",
        "meta_object_id": "1999-025BPX",
        "meta_epoch": "2025-12-05T12:24:34.242336",
        "meta_mean_motion": 13.75824695,
        "meta_eccentricity": 0.01705699,
        "meta_inclination": 98.8308,
        "meta_ra_of_asc_node": 238.8527,
        "meta_arg_of_pericenter": 106.1002,
        "meta_mean_anomaly": 70.781,
        "meta_ephemeris_type": 0,
        "meta_classification_type": "U",
        "meta_norad_cat_id": 31319,
        "meta_element_set_no": 999,
        "meta_rev_at_epoch": 93588,
        "meta_bstar": 0.00028183886,
        "meta_mean_motion_dot": 2.65e-06,
        "meta_mean_motion_ddot": 0,
        "tle_line1": "1 31319U 99025BPX 25339.51706299  .00000265  00000+0  28184-3 0  9991",
        "tle_line2": "2 31319  98.8308 238.8527 0170569 106.1002  70.7810 13.75824695935884"
      },
      "geometry": {
        "type": "Point",
        "coordinates": [
          30.993400923540197,
          -72.08952794997663
        ]
      }
    },
    {
      "type": "Feature",
      "properties": {
        "norad_id": 31321,
        "name": "FENGYUN 1C DEB",
        "group": "fengyun-1c-debris",
        "lat": 48.95644429727767,
        "lon": 49.320431387681886,
        "alt_km": 859.4481504850219,
        "timestamp": "2025-12-06T11:28:11.344179+00:00",
        "meta_object_name": "FENGYUN 1C DEB",
        "meta_object_id": "1999-025BPZ",
        "meta_epoch": "2025-11-28T23:11:37.489632",
        "meta_mean_motion": 14.13809948,
        "meta_eccentricity": 0.00293651,
        "meta_inclination": 98.7348,
        "meta_ra_of_asc_node": 52.1537,
        "meta_arg_of_pericenter": 217.1862,
        "meta_mean_anomaly": 142.7277,
        "meta_ephemeris_type": 0,
        "meta_classification_type": "U",
        "meta_norad_cat_id": 31321,
        "meta_element_set_no": 999,
        "meta_rev_at_epoch": 57189,
        "meta_bstar": 0.00017233355,
        "meta_mean_motion_dot": 2.84e-06,
        "meta_mean_motion_ddot": 0,
        "tle_line1": "1 31321U 99025BPZ 25332.96640613  .00000284  00000+0  17233-3 0  9997",
        "tle_line2": "2 31321  98.7348  52.1537 0029365 217.1862 142.7277 14.13809948571893"
      },
      "geometry": {
        "type": "Point",
        "coordinates": [
          49.320431387681886,
          48.95644429727767
        ]
      }
    },
    {
      "type": "Feature",
      "properties": {
        "norad_id": 31322,
        "name": "FENGYUN 1C DEB",
        "group": "fengyun-1c-debris",
        "lat": -74.6840590412206,
        "lon": 78.33074594762616,
        "alt_km": 1035.407257936,
        "timestamp": "2025-12-06T11:28:11.344189+00:00",
        "meta_object_name": "FENGYUN 1C DEB",
        "meta_object_id": "1999-025BQA",
        "meta_epoch": "2025-12-02T09:57:05.346144",
        "meta_mean_motion": 13.72990391,
        "meta_eccentricity": 0.0239007,
        "meta_inclination": 98.5749,
        "meta_ra_of_asc_node": 41.2566,
        "meta_arg_of_pericenter": 37.8458,
        "meta_mean_anomaly": 334.6813,
        "meta_ephemeris_type": 0,
        "meta_classification_type": "U",
        "meta_norad_cat_id": 31322,
        "meta_element_set_no": 999,
        "meta_rev_at_epoch": 62134,
        "meta_bstar": 0.00025402374,
        "meta_mean_motion_dot": 2.51e-06,
        "meta_mean_motion_ddot": 0,
        "tle_line1": "1 31322U 99025BQA 25336.41464521  .00000251  00000+0  25402-3 0  9995",
        "tle_line2": "2 31322  98.5749  41.2566 0239007  37.8458 334.6813 13.72990391621343"
      },
      "geometry": {
        "type": "Point",
        "coordinates": [
          78.33074594762616,
          -74.6840590412206
        ]
      }
    }
  ]
}